M3MSAT                  
1 41605U 16040G   23102.04724711  .00009933  00000+0  37021-3 0  9990
2 41605  97.1712 137.8061 0011326 163.2014 196.9604 15.27571810377842
SWAYAM                  
1 41607U 16040J   23101.13717680  .00074889  00000+0  11672-2 0  9993
2 41607  97.1635 151.3306 0008788 129.4659 230.7374 15.53570178378553
BEESAT-4                
1 41619U 16040W   23101.12716430  .00066489  00000+0  11868-2 0  9991
2 41619  97.1681 150.6160 0007863 128.4622 231.7337 15.49802316366452
MUOS-5                  
1 41622U 16041A   23101.67326117 -.00000131  00000+0  00000+0 0  9991
2 41622   4.9116 298.8176 0192716 242.6193 155.5353  1.00272229 25416
SJ 16-02                
1 41634U 16043A   23102.20821225  .00001191  00000+0  13480-3 0  9992
2 41634  75.0029 307.9982 0007880 331.4185  28.6575 14.87358858368051
TIANTONG-1 1            
1 41725U 16048A   23102.00098227 -.00000318  00000+0  00000+0 0  9995
2 41725   2.2780  12.1609 0006813   3.5087 286.0451  1.00270432 24618
GAOFEN 3                
1 41727U 16049A   23102.20978012  .00000143  00000+0  56691-4 0  9996
2 41727  98.4085 111.1925 0001670  99.6557 260.4821 14.42225570351152
JCSAT-16                
1 41729U 16050A   23101.53853203 -.00000253  00000+0  00000+0 0  9990
2 41729   0.0766  89.2861 0002196 211.6668 185.3931  1.00270127 24417
QSS (MOZI)              
1 41731U 16051A   23102.15774451  .00007453  00000+0  25828-3 0  9997
2 41731  97.3262  13.3846 0011141 337.9790 157.9748 15.30061145370487
USA 270                 
1 41744U 16052A   23094.28110578  .00000092  00000+0  00000+0 0  9993
2 41744   1.1856  92.1056 0000264 172.2201 211.9491  1.00421033  7012
USA 271                 
1 41745U 16052B   23096.07757597  .00000136  00000+0  00000+0 0  9990
2 41745   1.1605  92.0559 0000615 337.1593 176.3266  1.00188510  7023
INTELSAT 36 (IS-36)     
1 41747U 16053A   23102.13783098 -.00000026  00000+0  00000+0 0  9992
2 41747   0.0154 255.6070 0000880 110.1595 312.4309  1.00270668 24286
INTELSAT 33E (IS-33E)   
1 41748U 16053B   23101.86924300  .00000049  00000+0  00000+0 0  9999
2 41748   0.0129 270.7220 0001817 116.1731 185.8224  1.00270278 24592
INSAT-3DR               
1 41752U 16054A   23101.78047384 -.00000078  00000+0  00000+0 0  9997
2 41752   0.1285  89.9586 0011540 191.2356 273.5300  1.00272850 24168
PERUSAT 1               
1 41770U 16058A   23101.91986853  .00000659  00000+0  15149-3 0  9997
2 41770  98.1718 176.1840 0001589 103.4290 256.7071 14.58555399349675
SKYSAT-C4               
1 41771U 16058B   23101.92056119  .00018015  00000+0  45600-3 0  9992
2 41771  97.0736 162.8653 0004178 248.8781 111.2019 15.39792898366857
SKYSAT-C5               
1 41772U 16058C   23102.15157793  .00011324  00000+0  37939-3 0  9991
2 41772  97.2206 162.6009 0001778 147.8355 212.2995 15.31084231365393
SKYSAT-C2               
1 41773U 16058D   23100.74166885  .00021373  00000+0  51401-3 0  9992
2 41773  97.0752 162.1370 0002333  85.0941 275.0573 15.41321047366699
SKYSAT-C3               
1 41774U 16058E   23101.75702266  .00020730  00000+0  44561-3 0  9999
2 41774  97.0744 165.4438 0008855 186.4628 173.6509 15.44646209367006
PISAT                   
1 41784U 16059B   23101.85802934  .00001247  00000+0  24233-3 0  9991
2 41784  97.8776 138.0406 0030102 306.7628  53.0813 14.64530233349355
ALSAT 1B                
1 41785U 16059C   23102.14752614  .00000629  00000+0  11185-3 0  9999
2 41785  97.8685 141.7169 0009721   2.1742 357.9509 14.70346147349702
ALSAT 2B                
1 41786U 16059D   23102.17273771  .00001107  00000+0  20380-3 0  9994
2 41786  98.1000 163.5173 0000723  77.6167 282.5124 14.67514987350147
PATHFINDER 1            
1 41787U 16059E   23101.85322221  .00001028  00000+0  20167-3 0  9999
2 41787  97.8738 138.4573 0029231 303.9374  55.9034 14.64478715349401
SCATSAT 1               
1 41790U 16059H   23101.86333414  .00000409  00000+0  11442-3 0  9998
2 41790  98.2781 146.8767 0005273  25.0149 335.1300 14.51070724346341
GSAT-18                 
1 41793U 16060A   23101.84701993 -.00000077  00000+0  00000+0 0  9998
2 41793   0.1024  89.5753 0001011 301.5488 187.5815  1.00271796 23881
SKY MUSTER 2 (NBN1B)    
1 41794U 16060B   23101.93796213 -.00000245  00000+0  00000+0 0  9995
2 41794   0.0145 253.6456 0001657 132.3999 296.3027  1.00270284 23922
HIMAWARI-9              
1 41836U 16064A   23101.82688128 -.00000276  00000+0  00000+0 0  9993
2 41836   0.0120 177.3485 0001290 257.0198 203.8369  1.00269353 23539
SHIJIAN-17 (SJ-17)      
1 41838U 16065A   23101.89576223 -.00000361  00000+0  00000+0 0  9990
2 41838   2.7821  86.3264 0001122 192.8325 358.4759  1.00272682 23555
XPNAV-1                 
1 41841U 16066A   23102.21272144  .00011183  00000+0  38927-3 0  9993
2 41841  97.4058 112.8845 0011895 331.7607 158.6060 15.29789492356829
XIAOXIANG 1             
1 41842U 16066B   23101.90177186  .00021202  00000+0  61103-3 0  9994
2 41842  97.3894 116.0996 0009551 322.7037 123.6493 15.35707860357114
PINA 2A                 
1 41843U 16066C   23101.70159314  .00189075  00000+0  13415-2 0  9991
2 41843  97.3696 128.2252 0017377 290.2253 211.8030 15.73169238357872
PINA 2B                 
1 41844U 16066D   23102.23290944  .00053322  00000+0  10697-2 0  9990
2 41844  97.3749 120.0220 0006201 300.1670 122.4519 15.46505007357467
LISHUI 1-01             
1 41845U 16066E   23102.15325188  .01518235  00000+0  15203-1 0  9998
2 41845  98.7299 273.1289 0049767 186.1568 264.1335 15.61306772341525
CAS-2T & KS-1Q          
1 41847U 16066G   23101.93377882  .00001833  00000+0  28012-3 0  9997
2 41847  98.5085 170.7914 0361095  36.3594 326.1551 14.39511627337278
RAVAN                   
1 41849U 16067B   23102.14174096  .00008548  00000+0  60821-3 0  9990
2 41849  98.0289 253.9040 0017321  55.0164 305.2684 15.04790366350830
CELTEE 1                
1 41850U 16067C   23101.83277573  .00006076  00000+0  48179-3 0  9997
2 41850  98.0429 247.5173 0005004 113.6366 246.5383 15.00917789350462
OPTICUBE 04             
1 41851U 16067D   23101.67461161  .00004385  00000+0  36336-3 0  9991
2 41851  98.0345 245.8417 0010546  79.8964 280.3447 14.99350458350363
AEROCUBE 8D             
1 41852U 16067E   23102.15207852  .00007268  00000+0  57066-3 0  9997
2 41852  98.0529 246.8348 0005038  92.2424 267.9376 15.01222867350450
AEROCUBE 8C             
1 41853U 16067F   23102.13986830  .00006763  00000+0  53216-3 0  9998
2 41853  98.0397 246.5338 0009205  34.0999 326.0814 15.01146224350446
PROMETHEUS 2-1          
1 41854U 16067G   23101.41018598  .00011450  00000+0  82408-3 0  9990
2 41854  98.0593 248.2445 0018026  83.0402 277.2872 15.04258458350444
PROMETHEUS 2-3          
1 41855U 16067H   23101.93489244  .00011866  00000+0  85477-3 0  9998
2 41855  98.0515 248.7219 0015864  90.9404 269.3639 15.04247685350521
YUNHAI 1                
1 41857U 16068A   23102.19450329  .00000523  00000+0  20809-3 0  9998
2 41857  98.5903 106.7386 0006434 183.3524 176.7616 14.32803065335417
GSAT0207 (GALILEO 15)   
1 41859U 16069A   23099.96518654  .00000064  00000+0  00000+0 0  9994
2 41859  54.9091 133.3568 0005536 288.2093  71.8045  1.70474566 39565
GSAT0212 (GALILEO 16)   
1 41860U 16069B   23100.40633607  .00000062  00000+0  00000+0 0  9992
2 41860  54.9069 133.3418 0003722 305.3323  54.7044  1.70473301 39811
GSAT0213 (GALILEO 17)   
1 41861U 16069C   23101.35809262  .00000058  00000+0  00000+0 0  9995
2 41861  54.9092 133.3210 0005639 272.6268  87.3753  1.70473477 39690
GSAT0214 (GALILEO 18)   
1 41862U 16069D   23101.50523676  .00000057  00000+0  00000+0 0  9994
2 41862  54.9077 133.3111 0004625 274.7083  85.3051  1.70473403 39829
GOES 16                 
1 41866U 16071A   23102.15014155 -.00000250  00000+0  00000+0 0  9996
2 41866   0.0549 287.6240 0000651 130.6985 120.6175  1.00270500 23448
TIANLIAN 1-04           
1 41869U 16072A   23101.82688172  .00000032  00000+0  00000+0 0  9996
2 41869   0.0824  77.8459 0022479  50.2548 186.2526  1.00274994 23643
LEMUR-2-ANUBHAVTHAKUR   
1 41873U 16062E   23102.14324339  .00018883  00000+0  54187-3 0  9990
2 41873  51.6780  45.0568 0003821 255.5109 104.5451 15.35882380355085
LEMUR-2-WINGO           
1 41874U 16062F   23101.75974611  .00510861  10866-3  17739-2 0  9990
2 41874  51.6274 327.5787 0009722 205.9160 154.1359 15.88777256356056
GOKTURK 1A              
1 41875U 16073A   23102.20027775  .00000770  00000+0  16025-3 0  9990
2 41875  98.1445 357.6396 0001922  76.6793 283.4626 14.62753509338950
RESOURCESAT-2A          
1 41877U 16074A   23102.08215947  .00000278  00000+0  14642-3 0  9995
2 41877  98.6845 178.2414 0001602 135.6530 224.4774 14.21645563329199
WGS F8 (USA 272)        
1 41879U 16075A   23101.90327203 -.00000203  00000+0  00000+0 0  9995
2 41879   0.0092 231.1305 0000028 104.7479 338.9441  1.00270167 23167
FENGYUN 4A              
1 41882U 16077A   23102.00167958 -.00000332  00000+0  00000+0 0  9995
2 41882   0.1930 286.2686 0004780 213.4400 165.5071  1.00277165 23323
CYGFM05                 
1 41884U 16078A   23101.48455739  .00007380  00000+0  34137-3 0  9997
2 41884  34.9541 142.5466 0014957 241.8504 118.0697 15.19342647350081
CYGFM04                 
1 41885U 16078B   23101.75564781  .00007438  00000+0  33816-3 0  9993
2 41885  34.9476 128.3352 0013588 262.2343  97.6827 15.19949831350188
CYGFM02                 
1 41886U 16078C   23102.13281147  .00007072  00000+0  32110-3 0  9999
2 41886  34.9571 128.2767 0014195 259.2346 100.6769 15.19999691350390
CYGFM01                 
1 41887U 16078D   23101.52602029  .00007204  00000+0  33527-3 0  9998
2 41887  34.9509 145.1795 0015429 241.2124 118.7039 15.19129024350033
CYGFM08                 
1 41888U 16078E   23102.13619087  .00007222  00000+0  33088-3 0  9991
2 41888  34.9481 132.5306 0014545 259.1807 100.7269 15.19680234350306
